{"type": "FeatureCollection", "features": [ {"type": "Feature", "properties": {"norad_id": 54234, "name": "NOAA 21 (JPSS-2)", "group": "weather", "lat": -80.50929640560823, "lon": 2.711286499241886, "alt_km": 834.4395674991738, "timestamp": "2025-12-25T11:37:44.065094+00:00", "meta": {"OBJECT_NAME": "NOAA 21 (JPSS-2)", "OBJECT_ID": "2022-150A", "EPOCH": "2025-12-25T01:53:06.115200", "MEAN_MOTION": 14.19527459, "ECCENTRICITY": 0.0001654, "INCLINATION": 98.7478, "RA_OF_ASC_NODE": 295.2337, "ARG_OF_PERICENTER": 12.6911, "MEAN_ANOMALY": 347.4307, "EPHEMERIS_TYPE": 0, "CLASSIFICATION_TYPE": "U", "NORAD_CAT_ID": 54234, "ELEMENT_SET_NO": 999, "REV_AT_EPOCH": 16184, "BSTAR": 7.192e-05, "MEAN_MOTION_DOT": 1.08e-06, "MEAN_MOTION_DDOT": 0}, "tle": {"line1": "1 54234U 22150A   25359.07854300  .00000108  00000+0  71920-4 0  9990", "line2": "2 54234  98.7478 295.2337 0001654  12.6911 347.4307 14.19527459161845"}}, "geometry": {"type": "Point", "coordinates": [2.711286499241886, -80.50929640560823]}}, {"type": "Feature", "properties": {"norad_id": 54743, "name": "METEOSAT-12 (MTG-I1)", "group": "weather", "lat": -0.6415697952809378, "lon": -91.65281858188773, "alt_km": 35779.53515478762, "timestamp": "2025-12-25T11:37:44.065148+00:00", "meta": {"OBJECT_NAME": "METEOSAT-12 (MTG-I1)", "OBJECT_ID": "2022-170C", "EPOCH": "2025-12-24T21:39:29.392128", "MEAN_MOTION": 1.00270881, "ECCENTRICITY": 0.0001621, "INCLINATION": 0.6994, "RA_OF_ASC_NODE": 25.6342, "ARG_OF_PERICENTER": 240.988, "MEAN_ANOMALY": 151.5996, "EPHEMERIS_TYPE": 0, "CLASSIFICATION_TYPE": "U", "NORAD_CAT_ID": 54743, "ELEMENT_SET_NO": 999, "REV_AT_EPOCH": 1123, "BSTAR": 0, "MEAN_MOTION_DOT": 1.3e-07, "MEAN_MOTION_DDOT": 0}, "tle": {"line1": "1 54743U 22170C   25358.90242352  .00000013  00000+0  00000+0 0  9997", "line2": "2 54743   0.6994  25.6342 0001621 240.9880 151.5996  1.00270881 11236"}}, "geometry": {"type": "Point", "coordinates": [-91.65281858188773, -0.6415697952809378]}}, {"type": "Feature", "properties": {"norad_id": 55973, "name": "TIANMU-1 03", "group": "weather", "lat": 8.192020077869497, "lon": 161.40670681732294, "alt_km": 441.78068282005916, "timestamp": "2025-12-25T11:37:44.065162+00:00", "meta": {"OBJECT_NAME": "TIANMU-1 03", "OBJECT_ID": "2023-039A", "EPOCH": "2025-12-25T03:48:08.752896", "MEAN_MOTION": 15.412828, "ECCENTRICITY": 0.0003787, "INCLINATION": 97.5115, "RA_OF_ASC_NODE": 162.1598, "ARG_OF_PERICENTER": 24.834, "MEAN_ANOMALY": 335.3087, "EPHEMERIS_TYPE": 0, "CLASSIFICATION_TYPE": "U", "NORAD_CAT_ID": 55973, "ELEMENT_SET_NO": 999, "REV_AT_EPOCH": 15397, "BSTAR": 0.00040762, "MEAN_MOTION_DOT": 0.00016898, "MEAN_MOTION_DDOT": 0}, "tle": {"line1": "1 55973U 23039A   25359.15843464  .00016898  00000+0  40762-3 0  9998", "line2": "2 55973  97.5115 162.1598 0003787  24.8340 335.3087 15.41282800153972"}}, "geometry": {"type": "Point", "coordinates": [161.40670681732294, 8.192020077869497]}}, {"type": "Feature", "properties": {"norad_id": 55974, "name": "TIANMU-1 04", "group": "weather", "lat": 41.482799381236106, "lon": -11.62531619922728, "alt_km": 439.57251832623206, "timestamp": "2025-12-25T11:37:44.065173+00:00", "meta": {"OBJECT_NAME": "TIANMU-1 04", "OBJECT_ID": "2023-039B", "EPOCH": "2025-12-25T04:48:04.925664", "MEAN_MOTION": 15.41628018, "ECCENTRICITY": 0.0004385, "INCLINATION": 97.5046, "RA_OF_ASC_NODE": 161.3886, "ARG_OF_PERICENTER": 17.8099, "MEAN_ANOMALY": 342.3301, "EPHEMERIS_TYPE": 0, "CLASSIFICATION_TYPE": "U", "NORAD_CAT_ID": 55974, "ELEMENT_SET_NO": 999, "REV_AT_EPOCH": 15398, "BSTAR": 0.00041265, "MEAN_MOTION_DOT": 0.00017307, "MEAN_MOTION_DDOT": 0}, "tle": {"line1": "1 55974U 23039B   25359.20005701  .00017307  00000+0  41265-3 0  9994", "line2": "2 55974  97.5046 161.3886 0004385  17.8099 342.3301 15.41628018153988"}}, "geometry": {"type": "Point", "coordinates": [-11.62531619922728, 41.482799381236106]}}, {"type": "Feature", "properties": {"norad_id": 55975, "name": "TIANMU-1 05", "group": "weather", "lat": 27.296422641627494, "lon": -13.92266033452864, "alt_km": 442.31871434796903, "timestamp": "2025-12-25T11:37:44.065183+00:00", "meta": {"OBJECT_NAME": "TIANMU-1 05", "OBJECT_ID": "2023-039C", "EPOCH": "2025-12-25T04:44:15.383328", "MEAN_MOTION": 15.41241042, "ECCENTRICITY": 0.0003926, "INCLINATION": 97.5093, "RA_OF_ASC_NODE": 161.8788, "ARG_OF_PERICENTER": 43.8744, "MEAN_ANOMALY": 316.2813, "EPHEMERIS_TYPE": 0, "CLASSIFICATION_TYPE": "U", "NORAD_CAT_ID": 55975, "ELEMENT_SET_NO": 999, "REV_AT_EPOCH": 15396, "BSTAR": 0.00041174, "MEAN_MOTION_DOT": 0.00017046, "MEAN_MOTION_DDOT": 0}, "tle": {"line1": "1 55975U 23039C   25359.19740027  .00017046  00000+0  41174-3 0  9999", "line2": "2 55975  97.5093 161.8788 0003926  43.8744 316.2813 15.41241042153967"}}, "geometry": {"type": "Point", "coordinates": [-13.92266033452864, 27.296422641627494]}}, {"type": "Feature", "properties": {"norad_id": 55976, "name": "TIANMU-1 06", "group": "weather", "lat": 51.001390913449534, "lon": -7.9734830193901045, "alt_km": 436.5597859787067, "timestamp": "2025-12-25T11:37:44.065194+00:00", "meta": {"OBJECT_NAME": "TIANMU-1 06", "OBJECT_ID": "2023-039D", "EPOCH": "2025-12-25T04:50:36.841920", "MEAN_MOTION": 15.41679122, "ECCENTRICITY": 0.0004195, "INCLINATION": 97.5104, "RA_OF_ASC_NODE": 162.3587, "ARG_OF_PERICENTER": 37.7363, "MEAN_ANOMALY": 322.4177, "EPHEMERIS_TYPE": 0, "CLASSIFICATION_TYPE": "U", "NORAD_CAT_ID": 55976, "ELEMENT_SET_NO": 999, "REV_AT_EPOCH": 15398, "BSTAR": 0.0004101, "MEAN_MOTION_DOT": 0.00017228, "MEAN_MOTION_DDOT": 0}, "tle": {"line1": "1 55976U 23039D   25359.20181530  .00017228  00000+0  41010-3 0  9991", "line2": "2 55976  97.5104 162.3587 0004195  37.7363 322.4177 15.41679122153980"}}, "geometry": {"type": "Point", "coordinates": [-7.9734830193901045, 51.001390913449534]}}, {"type": "Feature", "properties": {"norad_id": 56232, "name": "FENGYUN 3G", "group": "weather", "lat": 22.05886852718437, "lon": -38.22661170907382, "alt_km": 409.99848044138434, "timestamp": "2025-12-25T11:37:44.065207+00:00", "meta": {"OBJECT_NAME": "FENGYUN 3G", "OBJECT_ID": "2023-055A", "EPOCH": "2025-12-24T22:37:17.658336", "MEAN_MOTION": 15.52036957, "ECCENTRICITY": 0.0003926, "INCLINATION": 49.9924, "RA_OF_ASC_NODE": 164.4637, "ARG_OF_PERICENTER": 287.7097, "MEAN_ANOMALY": 72.3441, "EPHEMERIS_TYPE": 0, "CLASSIFICATION_TYPE": "U", "NORAD_CAT_ID": 56232, "ELEMENT_SET_NO": 999, "REV_AT_EPOCH": 15292, "BSTAR": 0.00050839, "MEAN_MOTION_DOT": 0.0003091, "MEAN_MOTION_DDOT": 0}, "tle": {"line1": "1 56232U 23055A   25358.94256549  .00030910  00000+0  50839-3 0  9990", "line2": "2 56232  49.9924 164.4637 0003926 287.7097  72.3441 15.52036957152921"}}, "geometry": {"type": "Point", "coordinates": [-38.22661170907382, 22.05886852718437]}}, {"type": "Feature", "properties": {"norad_id": 57166, "name": "METEOR-M2 3", "group": "weather", "lat": 26.005833755391297, "lon": 48.54819273813114, "alt_km": 809.5611510579793, "timestamp": "2025-12-25T11:37:44.065220+00:00", "meta": {"OBJECT_NAME": "METEOR-M2 3", "OBJECT_ID": "2023-091A", "EPOCH": "2025-12-25T04:45:37.647360", "MEAN_MOTION": 14.24027549, "ECCENTRICITY": 0.0003246, "INCLINATION": 98.6361, "RA_OF_ASC_NODE": 52.5191, "ARG_OF_PERICENTER": 329.831, "MEAN_ANOMALY": 30.2682, "EPHEMERIS_TYPE": 0, "CLASSIFICATION_TYPE": "U", "NORAD_CAT_ID": 57166, "ELEMENT_SET_NO": 999, "REV_AT_EPOCH": 12975, "BSTAR": 2.129e-05, "MEAN_MOTION_DOT": 5e-08, "MEAN_MOTION_DDOT": 0}, "tle": {"line1": "1 57166U 23091A   25359.19835240  .00000005  00000+0  21290-4 0  9998", "line2": "2 57166  98.6361  52.5191 0003246 329.8310  30.2682 14.24027549129757"}}, "geometry": {"type": "Point", "coordinates": [48.54819273813114, 26.005833755391297]}}, {"type": "Feature", "properties": {"norad_id": 57399, "name": "TIANMU-1 07", "group": "weather", "lat": -56.41864155452791, "lon": 60.163340469898365, "alt_km": 489.0708324329553, "timestamp": "2025-12-25T11:37:44.065230+00:00", "meta": {"OBJECT_NAME": "TIANMU-1 07", "OBJECT_ID": "2023-101A", "EPOCH": "2025-12-25T04:01:16.497984", "MEAN_MOTION": 15.28245339, "ECCENTRICITY": 0.0005008, "INCLINATION": 97.2856, "RA_OF_ASC_NODE": 48.7431, "ARG_OF_PERICENTER": 49.5179, "MEAN_ANOMALY": 310.6496, "EPHEMERIS_TYPE": 0, "CLASSIFICATION_TYPE": "U", "NORAD_CAT_ID": 57399, "ELEMENT_SET_NO": 999, "REV_AT_EPOCH": 13505, "BSTAR": 0.00029923, "MEAN_MOTION_DOT": 8.166e-05, "MEAN_MOTION_DDOT": 0}, "tle": {"line1": "1 57399U 23101A   25359.16755206  .00008166  00000+0  29923-3 0  9994", "line2": "2 57399  97.2856  48.7431 0005008  49.5179 310.6496 15.28245339135052"}}, "geometry": {"type": "Point", "coordinates": [60.163340469898365, -56.41864155452791]}}, {"type": "Feature", "properties": {"norad_id": 57400, "name": "TIANMU-1 08", "group": "weather", "lat": 55.23969065564312, "lon": -120.52973886194883, "alt_km": 474.7754118400926, "timestamp": "2025-12-25T11:37:44.065240+00:00", "meta": {"OBJECT_NAME": "TIANMU-1 08", "OBJECT_ID": "2023-101B", "EPOCH": "2025-12-25T04:48:10.266048", "MEAN_MOTION": 15.28228168, "ECCENTRICITY": 0.000693, "INCLINATION": 97.2844, "RA_OF_ASC_NODE": 48.5707, "ARG_OF_PERICENTER": 48.5647, "MEAN_ANOMALY": 311.6187, "EPHEMERIS_TYPE": 0, "CLASSIFICATION_TYPE": "U", "NORAD_CAT_ID": 57400, "ELEMENT_SET_NO": 999, "REV_AT_EPOCH": 13505, "BSTAR": 0.00028694, "MEAN_MOTION_DOT": 7.826e-05, "MEAN_MOTION_DDOT": 0}, "tle": {"line1": "1 57400U 23101B   25359.20011882  .00007826  00000+0  28694-3 0  9993", "line2": "2 57400  97.2844  48.5707 0006930  48.5647 311.6187 15.28228168135059"}}, "geometry": {"type": "Point", "coordinates": [-120.52973886194883, 55.23969065564312]}}]}